{
  "type": "FeatureCollection",
  "features": [
    {
      "type": "Feature",
      "properties": {
        "norad_id": 34070,
        "name": "COSMOS 2251 DEB",
        "group": "cosmos-2251-debris",
        "lat": -32.17332680618269,
        "lon": -78.06023196919902,
        "alt_km": 630.6728212473554,
        "timestamp": "2025-12-25T07:41:10.117064+00:00",
        "meta_object_name": "COSMOS 2251 DEB",
        "meta_object_id": "1993-036KH",
        "meta_epoch": "2025-12-24T12:55:20.843616",
        "meta_mean_motion": 14.77407923,
        "meta_eccentricity": 0.00178897,
        "meta_inclination": 74.0008,
        "meta_ra_of_asc_node": 93.0773,
        "meta_arg_of_pericenter": 210.5778,
        "meta_mean_anomaly": 166.3906,
        "meta_ephemeris_type": 0,
        "meta_classification_type": "U",
        "meta_norad_cat_id": 34070,
        "meta_element_set_no": 999,
        "meta_rev_at_epoch": 88785,
        "meta_bstar": 0.0025806462,
        "meta_mean_motion_dot": 0.00018432,
        "meta_mean_motion_ddot": 0,
        "tle_line1": "1 34070U 93036KH  25358.53843569  .00018432  00000+0  25806-2 0  9991",
        "tle_line2": "2 34070  74.0008  93.0773 0017889 210.5778 166.3906 14.77407923887858"
      },
      "geometry": {
        "type": "Point",
        "coordinates": [
          -78.06023196919902,
          -32.17332680618269
        ]
      }
    },
    {
      "type": "Feature",
      "properties": {
        "norad_id": 34114,
        "name": "COSMOS 2251 DEB",
        "group": "cosmos-2251-debris",
        "lat": -20.823130252463123,
        "lon": -153.76730712137726,
        "alt_km": 742.7247947117285,
        "timestamp": "2025-12-25T07:41:10.117074+00:00",
        "meta_object_name": "COSMOS 2251 DEB",
        "meta_object_id": "1993-036KK",
        "meta_epoch": "2025-12-24T13:21:08.572608",
        "meta_mean_motion": 14.56531346,
        "meta_eccentricity": 0.00481549,
        "meta_inclination": 74.0585,
        "meta_ra_of_asc_node": 21.4389,
        "meta_arg_of_pericenter": 12.1188,
        "meta_mean_anomaly": 145.6475,
        "meta_ephemeris_type": 0,
        "meta_classification_type": "U",
        "meta_norad_cat_id": 34114,
        "meta_element_set_no": 999,
        "meta_rev_at_epoch": 87973,
        "meta_bstar": 0.0017206,
        "meta_mean_motion_dot": 7.759e-05,
        "meta_mean_motion_ddot": 0,
        "tle_line1": "1 34114U 93036KK  25358.55634922  .00007759  00000+0  17206-2 0  9998",
        "tle_line2": "2 34114  74.0585  21.4389 0048154  12.1188 145.6475 14.56531346879738"
      },
      "geometry": {
        "type": "Point",
        "coordinates": [
          -153.76730712137726,
          -20.823130252463123
        ]
      }
    },
    {
      "type": "Feature",
      "properties": {
        "norad_id": 34115,
        "name": "COSMOS 2251 DEB",
        "group": "cosmos-2251-debris",
        "lat": -71.17753086011787,
        "lon": 159.83424279258307,
        "alt_km": 646.5202319413374,
        "timestamp": "2025-12-25T07:41:10.117084+00:00",
        "meta_object_name": "COSMOS 2251 DEB",
        "meta_object_id": "1993-036KL",
        "meta_epoch": "2025-12-24T20:41:15.945504",
        "meta_mean_motion": 14.79642314,
        "meta_eccentricity": 0.00290516,
        "meta_inclination": 74.005,
        "meta_ra_of_asc_node": 218.0383,
        "meta_arg_of_pericenter": 37.9328,
        "meta_mean_anomaly": 322.3887,
        "meta_ephemeris_type": 0,
        "meta_classification_type": "U",
        "meta_norad_cat_id": 34115,
        "meta_element_set_no": 999,
        "meta_rev_at_epoch": 89591,
        "meta_bstar": 0.00087982801,
        "meta_mean_motion_dot": 6.619e-05,
        "meta_mean_motion_ddot": 0,
        "tle_line1": "1 34115U 93036KL  25358.86199011  .00006619  00000+0  87983-3 0  9992",
        "tle_line2": "2 34115  74.0050 218.0383 0029051  37.9328 322.3887 14.79642314895912"
      },
      "geometry": {
        "type": "Point",
        "coordinates": [
          159.83424279258307,
          -71.17753086011787
        ]
      }
    },
    {
      "type": "Feature",
      "properties": {
        "norad_id": 34116,
        "name": "COSMOS 2251 DEB",
        "group": "cosmos-2251-debris",
        "lat": 54.729107406027424,
        "lon": -44.82228719763158,
        "alt_km": 713.465653775077,
        "timestamp": "2025-12-25T07:41:10.117094+00:00",
        "meta_object_name": "COSMOS 2251 DEB",
        "meta_object_id": "1993-036KM",
        "meta_epoch": "2025-12-24T21:46:30.483264",
        "meta_mean_motion": 14.53047531,
        "meta_eccentricity": 0.0011798,
        "meta_inclination": 74.0399,
        "meta_ra_of_asc_node": 159.8239,
        "meta_arg_of_pericenter": 236.014,
        "meta_mean_anomaly": 246.6341,
        "meta_ephemeris_type": 0,
        "meta_classification_type": "U",
        "meta_norad_cat_id": 34116,
        "meta_element_set_no": 999,
        "meta_rev_at_epoch": 88663,
        "meta_bstar": 0.00088233001,
        "meta_mean_motion_dot": 3.622e-05,
        "meta_mean_motion_ddot": 0,
        "tle_line1": "1 34116U 93036KM  25358.90729726  .00003622  00000+0  88233-3 0  9990",
        "tle_line2": "2 34116  74.0399 159.8239 0011798 236.0140 246.6341 14.53047531886638"
      },
      "geometry": {
        "type": "Point",
        "coordinates": [
          -44.82228719763158,
          54.729107406027424
        ]
      }
    },
    {
      "type": "Feature",
      "properties": {
        "norad_id": 34117,
        "name": "COSMOS 2251 DEB",
        "group": "cosmos-2251-debris",
        "lat": 72.44626129604899,
        "lon": 25.3693494876164,
        "alt_km": 725.1488138300683,
        "timestamp": "2025-12-25T07:41:10.117104+00:00",
        "meta_object_name": "COSMOS 2251 DEB",
        "meta_object_id": "1993-036KN",
        "meta_epoch": "2025-12-24T21:18:15.195168",
        "meta_mean_motion": 14.40060297,
        "meta_eccentricity": 0.0055073,
        "meta_inclination": 74.0393,
        "meta_ra_of_asc_node": 321.3833,
        "meta_arg_of_pericenter": 34.3721,
        "meta_mean_anomaly": 326.0977,
        "meta_ephemeris_type": 0,
        "meta_classification_type": "U",
        "meta_norad_cat_id": 34117,
        "meta_element_set_no": 999,
        "meta_rev_at_epoch": 88298,
        "meta_bstar": 0.00071298822,
        "meta_mean_motion_dot": 2.263e-05,
        "meta_mean_motion_ddot": 0,
        "tle_line1": "1 34117U 93036KN  25358.88767587  .00002263  00000+0  71299-3 0  9999",
        "tle_line2": "2 34117  74.0393 321.3833 0055073  34.3721 326.0977 14.40060297882989"
      },
      "geometry": {
        "type": "Point",
        "coordinates": [
          25.3693494876164,
          72.44626129604899
        ]
      }
    },
    {
      "type": "Feature",
      "properties": {
        "norad_id": 34118,
        "name": "COSMOS 2251 DEB",
        "group": "cosmos-2251-debris",
        "lat": 72.17472632533146,
        "lon": -72.6183836309946,
        "alt_km": 541.3226227566392,
        "timestamp": "2025-12-25T07:41:10.117115+00:00",
        "meta_object_name": "COSMOS 2251 DEB",
        "meta_object_id": "1993-036KP",
        "meta_epoch": "2025-12-24T17:08:02.694048",
        "meta_mean_motion": 14.94319933,
        "meta_eccentricity": 0.00600995,
        "meta_inclination": 73.9505,
        "meta_ra_of_asc_node": 225.0653,
        "meta_arg_of_pericenter": 52.1796,
        "meta_mean_anomaly": 9.1773,
        "meta_ephemeris_type": 0,
        "meta_classification_type": "U",
        "meta_norad_cat_id": 34118,
        "meta_element_set_no": 999,
        "meta_rev_at_epoch": 89355,
        "meta_bstar": 0.0014475542,
        "meta_mean_motion_dot": 0.00016124,
        "meta_mean_motion_ddot": 0,
        "tle_line1": "1 34118U 93036KP  25358.71392007  .00016124  00000+0  14476-2 0  9997",
        "tle_line2": "2 34118  73.9505 225.0653 0060099  52.1796   9.1773 14.94319933893558"
      },
      "geometry": {
        "type": "Point",
        "coordinates": [
          -72.6183836309946,
          72.17472632533146
        ]
      }
    },
    {
      "type": "Feature",
      "properties": {
        "norad_id": 34120,
        "name": "COSMOS 2251 DEB",
        "group": "cosmos-2251-debris",
        "lat": 45.040657996872184,
        "lon": -2.279976397582488,
        "alt_km": 944.296541370134,
        "timestamp": "2025-12-25T07:41:10.117125+00:00",
        "meta_object_name": "COSMOS 2251 DEB",
        "meta_object_id": "1993-036KR",
        "meta_epoch": "2025-12-24T15:55:11.146944",
        "meta_mean_motion": 13.98696608,
        "meta_eccentricity": 0.01824743,
        "meta_inclination": 73.9901,
        "meta_ra_of_asc_node": 195.5672,
        "meta_arg_of_pericenter": 20.6119,
        "meta_mean_anomaly": 43.3989,
        "meta_ephemeris_type": 0,
        "meta_classification_type": "U",
        "meta_norad_cat_id": 34120,
        "meta_element_set_no": 999,
        "meta_rev_at_epoch": 86147,
        "meta_bstar": 0.0002851631,
        "meta_mean_motion_dot": 4.49e-06,
        "meta_mean_motion_ddot": 0,
        "tle_line1": "1 34120U 93036KR  25358.66332346  .00000449  00000+0  28516-3 0  9998",
        "tle_line2": "2 34120  73.9901 195.5672 0182474  20.6119  43.3989 13.98696608861479"
      },
      "geometry": {
        "type": "Point",
        "coordinates": [
          -2.279976397582488,
          45.040657996872184
        ]
      }
    }
  ]
}